[{"OBJECT_NAME":"YAOGAN-30 11B","OBJECT_ID":"2021-065C","EPOCH":"2026-03-09T16:31:48.488160","MEAN_MOTION":15.02134262,"ECCENTRICITY":9.601e-5,"INCLINATION":34.9931,"RA_OF_ASC_NODE":159.0081,"ARG_OF_PERICENTER":264.9738,"MEAN_ANOMALY":95.0861,"EPHEMERIS_TYPE":0,"CLASSIFICATION_TYPE":"U","NORAD_CAT_ID":49028,"ELEMENT_SET_NO":999,"REV_AT_EPOCH":25365,"BSTAR":0.00032720228,"MEAN_MOTION_DOT":4.364e-5,"MEAN_MOTION_DDOT":0},{"OBJECT_NAME":"FENGYUN 1C DEB","OBJECT_ID":"1999-025EJU","EPOCH":"2026-02-26T20:11:02.200416","MEAN_MOTION":14.76820792,"ECCENTRICITY":0.0127498,"INCLINATION":99.1634,"RA_OF_ASC_NODE":278.149,"ARG_OF_PERICENTER":258.5062,"MEAN_ANOMALY":100.1804,"EPHEMERIS_TYPE":0,"CLASSIFICATION_TYPE":"U","NORAD_CAT_ID":37474,"ELEMENT_SET_NO":999,"REV_AT_EPOCH":63498,"BSTAR":0.0012932,"MEAN_MOTION_DOT":0.00010319,"MEAN_MOTION_DDOT":0}]
